ONEWEB-0685             
1 54679U 22166AP  25033.42053815  .00000059  00000+0  11215-3 0  9995
2 54679  87.9341 343.5789 0001521  82.7868 277.3439 13.21824375105391
ONEWEB-0712             
1 54680U 22166AQ  25033.76000000  .00000042  00000+0  77449-4 0  9996
2 54680  87.9127 328.2900 0001454  99.3897 260.7399 13.16595286106348
ONEWEB-0714             
1 54681U 22166AR  25033.35116823  .00000088  00000+0  18123-3 0  9996
2 54681  87.9344 343.5828 0001628  81.1890 278.9428 13.21825657105509
ONEWEB-0532             
1 55140U 23004A   25033.22147738  .00000062  00000+0  12611-3 0  9992
2 55140  87.9076 105.4712 0001849  86.8835 273.2508 13.17648606101746
ONEWEB-0533             
1 55141U 23004B   25033.57033327 -.00000286  00000+0 -82951-3 0  9993
2 55141  87.8840  90.1243 0001792  98.5200 261.6132 13.12442961102529
ONEWEB-0541             
1 55142U 23004C   25033.66733873  .00000152  00000+0  39193-3 0  9997
2 55142  87.8897 120.6209 0001749 103.4634 256.6689 13.11420627100479
ONEWEB-0543             
1 55143U 23004D   25033.51750920  .00000005  00000+0 -18969-4 0  9991
2 55143  87.9054  74.9254 0001863 107.4850 252.6486 13.18684790103843
ONEWEB-0544             
1 55144U 23004E   25033.51118068 -.00000003  00000+0 -41045-4 0  9993
2 55144  87.9056  74.9142 0002094  98.4208 261.7161 13.18684696103841
